{
  "version": 0.6,
  "generator": "Overpass API 0.7.62.1 084b4234",
  "osm3s": {
    "timestamp_osm_base": "2024-07-09T15:28:30Z",
    "copyright": "The data included in this document is from www.openstreetmap.org. The data is made available under ODbL."
  },
  "elements": [

{
  "type": "way",
  "id": 24981342,
  "bounds": {
    "minlat": 53.5408770,
    "minlon": 9.9832434,
    "maxlat": 53.5416212,
    "maxlon": 9.9849674
  },
  "nodes": [
    1708914062,
    271454733,
    4484215633,
    11201726530,
    4484215632,
    2989375542,
    271454734,
    271454735,
    5111257095,
    1708914062
  ],
  "geometry": [
    { "lat": 53.5415472, "lon": 9.9832434 },
    { "lat": 53.5416212, "lon": 9.9848669 },
    { "lat": 53.5415736, "lon": 9.9848733 },
    { "lat": 53.5415329, "lon": 9.9848788 },
    { "lat": 53.5415209, "lon": 9.9848804 },
    { "lat": 53.5412250, "lon": 9.9849204 },
    { "lat": 53.5408770, "lon": 9.9849674 },
    { "lat": 53.5413583, "lon": 9.9832643 },
    { "lat": 53.5415012, "lon": 9.9832477 },
    { "lat": 53.5415472, "lon": 9.9832434 }
  ],
  "tags": {
    "addr:city": "Hamburg",
    "addr:country": "DE",
    "addr:housename": "Elbphilharmonie",
    "addr:housenumber": "1",
    "addr:postcode": "20457",
    "addr:street": "Platz der Deutschen Einheit",
    "amenity": "theatre",
    "architect": "Werner Kallmorgen;Herzog & de Meuron",
    "building": "public",
    "building:levels": "26",
    "construction_year": "2003-2016",
    "contact:email": "info@elbphilharmonie.de",
    "contact:phone": "+49 40 3576660",
    "contact:website": "https://www.elbphilharmonie.de/de/",
    "height": "110",
    "image": "https://photos.app.goo.gl/rWdeHuVtpviFyEgh6",
    "loc_name": "Elphi",
    "name": "Elbphilharmonie",
    "name:de": "Elbphilharmonie",
    "name:en": "Elbe Philharmonic Hall",
    "name:nl": "Elbphilharmonie",
    "name:pt": "Filarm√¥nica do Elba",
    "old_name": "Kaispeicher A",
    "operator": "Stadt Hamburg",
    "roof:colour": "white",
    "roof:direction": "100",
    "roof:height": "20",
    "roof:levels": "0",
    "roof:shape": "skillion",
    "start_date": "2016-10-31",
    "theatre:genre": "philharmonic",
    "theatre:type": "concert_hall",
    "toilets:wheelchair": "yes",
    "tourism": "attraction",
    "wheelchair": "limited",
    "wikidata": "Q673223",
    "wikimedia_commons": "Category:Elbphilharmonie",
    "wikipedia": "de:Elbphilharmonie"
  }
}

  ]
}
